OBJECT_NAME,OBJECT_ID,EPOCH,MEAN_MOTION,ECCENTRICITY,INCLINATION,RA_OF_ASC_NODE,ARG_OF_PERICENTER,MEAN_ANOMALY,EPHEMERIS_TYPE,CLASSIFICATION_TYPE,NORAD_CAT_ID,ELEMENT_SET_NO,REV_AT_EPOCH,BSTAR,MEAN_MOTION_DOT,MEAN_MOTION_DDOT
STARLINK-31406,2024-036V,2025-10-09T22:00:00.999936,15.30188992,.00012367,53.1595,45.2842,87.4897,312.6020,0,U,59017,999,589,.26312307E-3,.7439E-4,0
STARLINK-31527,2024-036W,2025-10-09T18:22:40.401696,15.30186104,.00013587,53.1609,59.3286,100.8368,259.2785,0,U,59018,999,9221,.18741243E-4,.196E-5,0
STARLINK-31436,2024-036X,2025-10-09T17:17:30.154560,15.30157718,.00016843,53.1581,59.7523,72.7588,287.3597,0,U,59019,999,9220,.19063555E-3,.5284E-4,0
STARLINK-30996,2024-038A,2025-10-10T00:17:40.494336,15.27560022,.00007042,42.9983,157.9958,279.6727,80.4045,0,U,59023,999,9308,-.37453671E-4,-.1292E-4,0
STARLINK-31006,2024-038B,2025-10-09T12:50:51.510624,15.27597846,.0001814,42.9980,110.2369,258.5931,101.4717,0,U,59024,999,9222,.35431E-4,.713E-5,0
STARLINK-31178,2024-038C,2025-10-09T08:50:54.085056,15.27578542,.0001011,43.0043,161.7696,285.5541,74.5199,0,U,59025,999,9150,-.47505E-4,-.1569E-4,0
STARLINK-31227,2024-038D,2025-10-09T22:28:43.033152,15.27559790,.0001573,43.0008,158.2886,261.0733,98.9940,0,U,59026,999,9170,-.30281E-5,-.345E-5,0
STARLINK-30863,2024-038E,2025-10-09T15:39:03.496320,15.27157515,.0000921,42.9995,160.4429,285.7710,74.3040,0,U,59027,999,9154,.5825E-2,.161491E-2,0
STARLINK-31206,2024-038F,2025-10-09T12:01:48.032832,15.27576505,.0001507,43.0014,95.8450,271.2013,88.8666,0,U,59028,999,9240,-.60585E-5,-.429E-5,0
STARLINK-31224,2024-038G,2025-10-10T01:25:55.272000,15.27566721,.00015551,42.9988,157.4934,278.1329,81.9346,0,U,59029,999,9172,-.67302449E-4,-.2113E-4,0
STARLINK-31186,2024-038H,2025-10-09T23:03:52.280064,15.27564077,.00006907,42.9977,158.4766,286.2301,73.8475,0,U,59030,999,9170,-.40210603E-4,-.1367E-4,0
STARLINK-31211,2024-038J,2025-10-10T01:18:31.766112,15.27552751,.00017101,43.0005,157.4539,292.4779,67.5891,0,U,59031,999,9161,.20854534E-3,.5476E-4,0
STARLINK-30862,2024-038K,2025-10-10T00:52:51.861504,15.27570185,.00013227,43.0000,146.9761,262.6017,97.4684,0,U,59032,999,9173,-.14274192E-3,-.4187E-4,0
STARLINK-31210,2024-038L,2025-10-10T00:22:05.122848,15.27563503,.00014574,43.0033,154.5728,273.7001,86.3684,0,U,59033,999,9181,-.6753459E-4,-.2119E-4,0
STARLINK-31231,2024-038M,2025-10-10T00:16:31.276704,15.27564963,.00009965,43.0006,154.5438,286.6706,73.4036,0,U,59034,999,9164,.36706884E-4,.748E-5,0
STARLINK-31207,2024-038N,2025-10-10T01:45:07.428096,15.27570349,.00009884,42.9989,154.1446,283.9443,76.1299,0,U,59035,999,9182,-.13930559E-3,-.4092E-4,0
STARLINK-31217,2024-038P,2025-10-09T19:10:27.474240,15.27569632,.00022392,43.0000,61.3710,314.4443,45.6225,0,U,59036,999,9286,-.90011903E-4,-.2738E-4,0
STARLINK-31208,2024-038Q,2025-10-10T01:09:42.818400,15.25898855,.00012201,43.0001,157.3826,272.0647,88.0064,0,U,59037,999,9178,-.13525561E-3,-.3792E-4,0
STARLINK-31235,2024-038R,2025-10-10T01:41:26.118816,15.27573680,.00012052,42.9998,154.1219,272.8805,87.1909,0,U,59038,999,9176,.21831345E-3,.5749E-4,0
STARLINK-31220,2024-038S,2025-10-10T01:44:25.426464,15.27560478,.00017608,42.9990,157.5801,263.2822,96.7829,0,U,59039,999,9172,.7629603E-5,-.52E-6,0
STARLINK-31225,2024-038T,2025-10-10T01:21:04.060800,15.27556141,.00015511,43.0014,153.9759,286.3758,73.6923,0,U,59040,999,9165,.11685244E-3,.2952E-4,0
STARLINK-31240,2024-038U,2025-10-10T00:42:26.588160,15.27550915,.00009161,43.0003,154.6825,263.9251,96.1496,0,U,59041,999,9175,-.77448959E-4,-.239E-4,0
STARLINK-31202,2024-038V,2025-10-10T00:47:45.463776,15.27590932,.00011447,43.0037,153.8542,265.7009,94.3712,0,U,59042,999,9182,-.21205263E-3,-.6094E-4,0
STARLINK-31234,2024-038W,2025-10-09T22:59:00.791520,15.27595510,.00016243,43.0015,154.9999,299.9592,60.1099,0,U,59043,999,9163,-.29207141E-3,-.8294E-4,0
STARLINK-31153,2024-038X,2025-10-10T00:01:43.356000,15.27583133,.00013107,42.9986,154.4607,262.6963,97.3740,0,U,59044,999,9164,-.24102327E-3,-.6889E-4,0
STARLINK-31241,2024-038Y,2025-10-10T00:38:43.791936,15.27582011,.00005823,43.0014,154.6613,282.1957,77.8829,0,U,59045,999,9181,-.10927456E-3,-.3268E-4,0
STARLINK-31205,2024-038Z,2025-10-09T22:53:28.166208,15.27563180,.00011888,43.0025,154.9710,267.9925,92.0790,0,U,59046,999,9174,.4644892E-5,-.134E-5,0
STARLINK-31265,2024-041A,2025-10-09T11:10:07.504032,15.27574192,.000153,43.0039,84.7448,275.6149,84.4529,0,U,59074,999,9114,.10235E-4,.19E-6,0
STARLINK-31276,2024-041B,2025-10-09T18:14:39.316128,15.27565894,.00010969,43.0041,82.6642,261.9401,98.1326,0,U,59075,999,9124,-.38267671E-4,-.1314E-4,0
STARLINK-31259,2024-041C,2025-10-09T12:03:33.526368,15.27579254,.000154,43.0033,84.1673,262.1470,97.9207,0,U,59076,999,9010,.46609E-4,.1021E-4,0
