STARLINK-31406          
1 59017U 24036V   25282.91667824  .00007439  00000+0  26312-3 0  9998
2 59017  53.1595  45.2842 0001236  87.4897 312.6020 15.30188992  5894
STARLINK-31527          
1 59018U 24036W   25282.76574539  .00000196  00000+0  18741-4 0  9993
2 59018  53.1609  59.3286 0001358 100.8368 259.2785 15.30186104 92216
STARLINK-31436          
1 59019U 24036X   25282.72048790  .00005284  00000+0  19064-3 0  9996
2 59019  53.1581  59.7523 0001684  72.7588 287.3597 15.30157718 92208
STARLINK-30996          
1 59023U 24038A   25283.01227424 -.00001292  00000+0 -37454-4 0  9990
2 59023  42.9983 157.9958 0000704 279.6727  80.4045 15.27560022 93082
STARLINK-31006          
1 59024U 24038B   25282.53531841  .00000713  00000+0  35431-4 0  9996
2 59024  42.9980 110.2369 0001814 258.5931 101.4717 15.27597846 92223
STARLINK-31178          
1 59025U 24038C   25282.36868154 -.00001569  00000+0 -47505-4 0  9995
2 59025  43.0043 161.7696 0001011 285.5541  74.5199 15.27578542 91502
STARLINK-31227          
1 59026U 24038D   25282.93660918 -.00000345  00000+0 -30281-5 0  9992
2 59026  43.0008 158.2886 0001573 261.0733  98.9940 15.27559790 91701
STARLINK-30863          
1 59027U 24038E   25282.65212380  .00161491  00000+0  58250-2 0  9999
2 59027  42.9995 160.4429 0000921 285.7710  74.3040 15.27157515 91547
STARLINK-31206          
1 59028U 24038F   25282.50125038 -.00000429  00000+0 -60585-5 0  9999
2 59028  43.0014  95.8450 0001507 271.2013  88.8666 15.27576505 92408
STARLINK-31224          
1 59029U 24038G   25283.05966750 -.00002113  00000+0 -67302-4 0  9990
2 59029  42.9988 157.4934 0001555 278.1329  81.9346 15.27566721 91720
STARLINK-31186          
1 59030U 24038H   25282.96102176 -.00001367  00000+0 -40211-4 0  9995
2 59030  42.9977 158.4766 0000690 286.2301  73.8475 15.27564077 91706
STARLINK-31211          
1 59031U 24038J   25283.05453433  .00005476  00000+0  20855-3 0  9996
2 59031  43.0005 157.4539 0001710 292.4779  67.5891 15.27552751 91618
STARLINK-30862          
1 59032U 24038K   25283.03671136 -.00004187  00000+0 -14274-3 0  9995
2 59032  43.0000 146.9761 0001322 262.6017  97.4684 15.27570185 91733
STARLINK-31210          
1 59033U 24038L   25283.01533707 -.00002119  00000+0 -67535-4 0  9997
2 59033  43.0033 154.5728 0001457 273.7001  86.3684 15.27563503 91815
STARLINK-31231          
1 59034U 24038M   25283.01147311  .00000748  00000+0  36707-4 0  9991
2 59034  43.0006 154.5438 0000996 286.6706  73.4036 15.27564963 91646
STARLINK-31207          
1 59035U 24038N   25283.07300264 -.00004092  00000+0 -13931-3 0  9997
2 59035  42.9989 154.1446 0000988 283.9443  76.1299 15.27570349 91825
STARLINK-31217          
1 59036U 24038P   25282.79892910 -.00002738  00000+0 -90012-4 0  9991
2 59036  43.0000  61.3710 0002239 314.4443  45.6225 15.27569632 92864
STARLINK-31208          
1 59037U 24038Q   25283.04841225 -.00003792  00000+0 -13526-3 0  9999
2 59037  43.0001 157.3826 0001220 272.0647  88.0064 15.25898855 91786
STARLINK-31235          
1 59038U 24038R   25283.07044119  .00005749  00000+0  21831-3 0  9990
2 59038  42.9998 154.1219 0001205 272.8805  87.1909 15.27573680 91762
STARLINK-31220          
1 59039U 24038S   25283.07251651 -.00000052  00000+0  76296-5 0  9992
2 59039  42.9990 157.5801 0001760 263.2822  96.7829 15.27560478 91722
STARLINK-31225          
1 59040U 24038T   25283.05629700  .00002952  00000+0  11685-3 0  9995
2 59040  43.0014 153.9759 0001551 286.3758  73.6923 15.27556141 91650
STARLINK-31240          
1 59041U 24038U   25283.02947440 -.00002390  00000+0 -77449-4 0  9996
2 59041  43.0003 154.6825 0000916 263.9251  96.1496 15.27550915 91753
STARLINK-31202          
1 59042U 24038V   25283.03316509 -.00006094  00000+0 -21205-3 0  9997
2 59042  43.0037 153.8542 0001144 265.7009  94.3712 15.27590932 91825
STARLINK-31234          
1 59043U 24038W   25282.95764805 -.00008294  00000+0 -29207-3 0  9998
2 59043  43.0015 154.9999 0001624 299.9592  60.1099 15.27595510 91634
STARLINK-31153          
1 59044U 24038X   25283.00119625 -.00006889  00000+0 -24102-3 0  9997
2 59044  42.9986 154.4607 0001310 262.6963  97.3740 15.27583133 91646
STARLINK-31241          
1 59045U 24038Y   25283.02689574 -.00003268  00000+0 -10927-3 0  9993
2 59045  43.0014 154.6613 0000582 282.1957  77.8829 15.27582011 91814
STARLINK-31205          
1 59046U 24038Z   25282.95379822 -.00000134  00000+0  46449-5 0  9995
2 59046  43.0025 154.9710 0001188 267.9925  92.0790 15.27563180 91741
STARLINK-31265          
1 59074U 24041A   25282.46536463  .00000019  00000+0  10235-4 0  9996
2 59074  43.0039  84.7448 0001530 275.6149  84.4529 15.27574192 91144
STARLINK-31276          
1 59075U 24041B   25282.76017727 -.00001314  00000+0 -38268-4 0  9994
2 59075  43.0041  82.6642 0001096 261.9401  98.1326 15.27565894 91244
STARLINK-31259          
1 59076U 24041C   25282.50247137  .00001021  00000+0  46609-4 0  9998
2 59076  43.0033  84.1673 0001540 262.1470  97.9207 15.27579254 90104
